KUIPER-00114            
1 65151U 25171V   26064.60671315 -.00003937  00000+0 -48775-3 0  9998
2 65151  51.9004 193.6577 0001228 136.0472 224.0588 14.79925970 32033
KUIPER-00115            
1 65152U 25171W   26064.54713445  .00001151  00000+0  17988-3 0  9999
2 65152  51.8979 186.4029 0000642 104.1536 255.9498 14.79944108 32130
KUIPER-00116            
1 65153U 25171X   26064.57562953  .00007161  00000+0  96743-3 0  9992
2 65153  51.8998 191.3208 0001098 132.3736 227.7319 14.79930482 32068
KUIPER-00118            
1 65154U 25171Y   26064.64023233  .00006216  00000+0  84186-3 0  9992
2 65154  51.9008 193.4903 0000475  80.1533 279.9483 14.80019102 32048
KUIPER-00119            
1 65155U 25171Z   26064.58639016  .00006543  00000+0  88522-3 0  9999
2 65155  51.9015 181.3145 0001056 141.5889 218.5149 14.79989654 32205
KUIPER-00120            
1 65762U 25217A   26064.58335648 -.00010184  00000+0 -13071-2 0  9992
2 65762  51.8975  71.2274 0000441  85.5723  76.0746 14.79989690  3820
KUIPER-00132            
1 65763U 25217B   26064.59404219  .00067139  00000+0  16730-2 0  9990
2 65763  51.8615  23.3801 0006308 321.1827  38.8706 15.39587525 24797
KUIPER-00133            
1 65764U 25217C   26064.24915520 -.00001529  00000+0 -17159-3 0  9995
2 65764  51.9043  72.7545 0002059  15.9257 344.1770 14.79936900 24085
KUIPER-00139            
1 65765U 25217D   26064.25058691  .00011401  00000+0  88362-3 0  9996
2 65765  51.8859  54.1206 0007105 305.3860  54.6447 15.01801499 24344
KUIPER-00142            
1 65766U 25217E   26064.36942070  .00003979  00000+0  55067-3 0  9999
2 65766  51.9001  54.6943 0000578  94.8910 265.2118 14.79934159 24340
KUIPER-00145            
1 65767U 25217F   26064.36662298  .00005732  00000+0  78011-3 0  9994
2 65767  51.8997  57.2197 0000850  83.1646 276.9413 14.79943314 24300
KUIPER-00147            
1 65768U 25217G   26064.39776659  .00004736  00000+0  64941-3 0  9995
2 65768  51.8994  59.5791 0000743  95.2883 264.8164 14.79959278 24272
KUIPER-00148            
1 65769U 25217H   26064.30298615  .00015844  00000+0  98925-3 0  9999
2 65769  51.8788  44.9805 0008487 339.4478  20.6154 15.09601703 24474
KUIPER-00150            
1 65770U 25217J   26064.45431871  .00005609  00000+0  76282-3 0  9990
2 65770  51.9005  69.3323 0000701  49.2335 310.8688 14.80008603 24142
KUIPER-00151            
1 65771U 25217K   26064.46257554 -.00004496  00000+0 -56106-3 0  9994
2 65771  51.9023  61.7926 0000861  47.5445 312.5590 14.79938170 24250
KUIPER-00152            
1 65772U 25217L   26064.64487669 -.00002911  00000+0 -35282-3 0  9999
2 65772  51.9005  48.4794 0000621 117.5675 242.5350 14.79949813 24457
