[{"OBJECT_NAME":"KUIPER-00114","OBJECT_ID":"2025-171V","EPOCH":"2026-03-05T14:33:40.016160","MEAN_MOTION":14.7992597,"ECCENTRICITY":0.00012288,"INCLINATION":51.9004,"RA_OF_ASC_NODE":193.6577,"ARG_OF_PERICENTER":136.0472,"MEAN_ANOMALY":224.0588,"EPHEMERIS_TYPE":0,"CLASSIFICATION_TYPE":"U","NORAD_CAT_ID":65151,"ELEMENT_SET_NO":999,"REV_AT_EPOCH":3203,"BSTAR":-0.00048775063,"MEAN_MOTION_DOT":-3.937e-5,"MEAN_MOTION_DDOT":0},{"OBJECT_NAME":"KUIPER-00115","OBJECT_ID":"2025-171W","EPOCH":"2026-03-05T13:07:52.416480","MEAN_MOTION":14.79944108,"ECCENTRICITY":6.428e-5,"INCLINATION":51.8979,"RA_OF_ASC_NODE":186.4029,"ARG_OF_PERICENTER":104.1536,"MEAN_ANOMALY":255.9498,"EPHEMERIS_TYPE":0,"CLASSIFICATION_TYPE":"U","NORAD_CAT_ID":65152,"ELEMENT_SET_NO":999,"REV_AT_EPOCH":3213,"BSTAR":0.00017987637,"MEAN_MOTION_DOT":1.151e-5,"MEAN_MOTION_DDOT":0},{"OBJECT_NAME":"KUIPER-00116","OBJECT_ID":"2025-171X","EPOCH":"2026-03-05T13:48:54.391392","MEAN_MOTION":14.79930482,"ECCENTRICITY":0.00010985,"INCLINATION":51.8998,"RA_OF_ASC_NODE":191.3208,"ARG_OF_PERICENTER":132.3736,"MEAN_ANOMALY":227.7319,"EPHEMERIS_TYPE":0,"CLASSIFICATION_TYPE":"U","NORAD_CAT_ID":65153,"ELEMENT_SET_NO":999,"REV_AT_EPOCH":3206,"BSTAR":0.00096743094,"MEAN_MOTION_DOT":7.161e-5,"MEAN_MOTION_DDOT":0},{"OBJECT_NAME":"KUIPER-00118","OBJECT_ID":"2025-171Y","EPOCH":"2026-03-05T15:21:56.073312","MEAN_MOTION":14.80019102,"ECCENTRICITY":4.752e-5,"INCLINATION":51.9008,"RA_OF_ASC_NODE":193.4903,"ARG_OF_PERICENTER":80.1533,"MEAN_ANOMALY":279.9483,"EPHEMERIS_TYPE":0,"CLASSIFICATION_TYPE":"U","NORAD_CAT_ID":65154,"ELEMENT_SET_NO":999,"REV_AT_EPOCH":3204,"BSTAR":0.00084186203,"MEAN_MOTION_DOT":6.216e-5,"MEAN_MOTION_DDOT":0},{"OBJECT_NAME":"KUIPER-00119","OBJECT_ID":"2025-171Z","EPOCH":"2026-03-05T14:04:24.109824","MEAN_MOTION":14.79989654,"ECCENTRICITY":0.00010569,"INCLINATION":51.9015,"RA_OF_ASC_NODE":181.3145,"ARG_OF_PERICENTER":141.5889,"MEAN_ANOMALY":218.5149,"EPHEMERIS_TYPE":0,"CLASSIFICATION_TYPE":"U","NORAD_CAT_ID":65155,"ELEMENT_SET_NO":999,"REV_AT_EPOCH":3220,"BSTAR":0.00088521715,"MEAN_MOTION_DOT":6.543e-5,"MEAN_MOTION_DDOT":0},{"OBJECT_NAME":"KUIPER-00120","OBJECT_ID":"2025-217A","EPOCH":"2026-03-05T14:00:01.999872","MEAN_MOTION":14.7998969,"ECCENTRICITY":4.412e-5,"INCLINATION":51.8975,"RA_OF_ASC_NODE":71.2274,"ARG_OF_PERICENTER":85.5723,"MEAN_ANOMALY":76.0746,"EPHEMERIS_TYPE":0,"CLASSIFICATION_TYPE":"U","NORAD_CAT_ID":65762,"ELEMENT_SET_NO":999,"REV_AT_EPOCH":382,"BSTAR":-0.0013071022,"MEAN_MOTION_DOT":-0.00010184,"MEAN_MOTION_DDOT":0},{"OBJECT_NAME":"KUIPER-00132","OBJECT_ID":"2025-217B","EPOCH":"2026-03-05T14:15:25.245216","MEAN_MOTION":15.39587525,"ECCENTRICITY":0.00063088,"INCLINATION":51.8615,"RA_OF_ASC_NODE":23.3801,"ARG_OF_PERICENTER":321.1827,"MEAN_ANOMALY":38.8706,"EPHEMERIS_TYPE":0,"CLASSIFICATION_TYPE":"U","NORAD_CAT_ID":65763,"ELEMENT_SET_NO":999,"REV_AT_EPOCH":2479,"BSTAR":0.0016729621,"MEAN_MOTION_DOT":0.00067139,"MEAN_MOTION_DDOT":0},{"OBJECT_NAME":"KUIPER-00133","OBJECT_ID":"2025-217C","EPOCH":"2026-03-05T05:58:47.009280","MEAN_MOTION":14.799369,"ECCENTRICITY":0.00020592,"INCLINATION":51.9043,"RA_OF_ASC_NODE":72.7545,"ARG_OF_PERICENTER":15.9257,"MEAN_ANOMALY":344.177,"EPHEMERIS_TYPE":0,"CLASSIFICATION_TYPE":"U","NORAD_CAT_ID":65764,"ELEMENT_SET_NO":999,"REV_AT_EPOCH":2408,"BSTAR":-0.00017158896,"MEAN_MOTION_DOT":-1.529e-5,"MEAN_MOTION_DDOT":0},{"OBJECT_NAME":"KUIPER-00139","OBJECT_ID":"2025-217D","EPOCH":"2026-03-05T06:00:50.709024","MEAN_MOTION":15.01801499,"ECCENTRICITY":0.00071059,"INCLINATION":51.8859,"RA_OF_ASC_NODE":54.1206,"ARG_OF_PERICENTER":305.386,"MEAN_ANOMALY":54.6447,"EPHEMERIS_TYPE":0,"CLASSIFICATION_TYPE":"U","NORAD_CAT_ID":65765,"ELEMENT_SET_NO":999,"REV_AT_EPOCH":2434,"BSTAR":0.0008836228,"MEAN_MOTION_DOT":0.00011401,"MEAN_MOTION_DDOT":0},{"OBJECT_NAME":"KUIPER-00142","OBJECT_ID":"2025-217E","EPOCH":"2026-03-05T08:51:57.948480","MEAN_MOTION":14.79934159,"ECCENTRICITY":5.781e-5,"INCLINATION":51.9001,"RA_OF_ASC_NODE":54.6943,"ARG_OF_PERICENTER":94.891,"MEAN_ANOMALY":265.2118,"EPHEMERIS_TYPE":0,"CLASSIFICATION_TYPE":"U","NORAD_CAT_ID":65766,"ELEMENT_SET_NO":999,"REV_AT_EPOCH":2434,"BSTAR":0.00055066976,"MEAN_MOTION_DOT":3.979e-5,"MEAN_MOTION_DDOT":0},{"OBJECT_NAME":"KUIPER-00145","OBJECT_ID":"2025-217F","EPOCH":"2026-03-05T08:47:56.225472","MEAN_MOTION":14.79943314,"ECCENTRICITY":8.501e-5,"INCLINATION":51.8997,"RA_OF_ASC_NODE":57.2197,"ARG_OF_PERICENTER":83.1646,"MEAN_ANOMALY":276.9413,"EPHEMERIS_TYPE":0,"CLASSIFICATION_TYPE":"U","NORAD_CAT_ID":65767,"ELEMENT_SET_NO":999,"REV_AT_EPOCH":2430,"BSTAR":0.00078011049,"MEAN_MOTION_DOT":5.732e-5,"MEAN_MOTION_DDOT":0},{"OBJECT_NAME":"KUIPER-00147","OBJECT_ID":"2025-217G","EPOCH":"2026-03-05T09:32:47.033376","MEAN_MOTION":14.79959278,"ECCENTRICITY":7.437e-5,"INCLINATION":51.8994,"RA_OF_ASC_NODE":59.5791,"ARG_OF_PERICENTER":95.2883,"MEAN_ANOMALY":264.8164,"EPHEMERIS_TYPE":0,"CLASSIFICATION_TYPE":"U","NORAD_CAT_ID":65768,"ELEMENT_SET_NO":999,"REV_AT_EPOCH":2427,"BSTAR":0.00064940665,"MEAN_MOTION_DOT":4.736e-5,"MEAN_MOTION_DDOT":0},{"OBJECT_NAME":"KUIPER-00148","OBJECT_ID":"2025-217H","EPOCH":"2026-03-05T07:16:18.003360","MEAN_MOTION":15.09601703,"ECCENTRICITY":0.00084874,"INCLINATION":51.8788,"RA_OF_ASC_NODE":44.9805,"ARG_OF_PERICENTER":339.4478,"MEAN_ANOMALY":20.6154,"EPHEMERIS_TYPE":0,"CLASSIFICATION_TYPE":"U","NORAD_CAT_ID":65769,"ELEMENT_SET_NO":999,"REV_AT_EPOCH":2447,"BSTAR":0.00098924637,"MEAN_MOTION_DOT":0.00015844,"MEAN_MOTION_DDOT":0},{"OBJECT_NAME":"KUIPER-00150","OBJECT_ID":"2025-217J","EPOCH":"2026-03-05T10:54:13.136544","MEAN_MOTION":14.80008603,"ECCENTRICITY":7.015e-5,"INCLINATION":51.9005,"RA_OF_ASC_NODE":69.3323,"ARG_OF_PERICENTER":49.2335,"MEAN_ANOMALY":310.8688,"EPHEMERIS_TYPE":0,"CLASSIFICATION_TYPE":"U","NORAD_CAT_ID":65770,"ELEMENT_SET_NO":999,"REV_AT_EPOCH":2414,"BSTAR":0.00076281876,"MEAN_MOTION_DOT":5.609e-5,"MEAN_MOTION_DDOT":0},{"OBJECT_NAME":"KUIPER-00151","OBJECT_ID":"2025-217K","EPOCH":"2026-03-05T11:06:06.526656","MEAN_MOTION":14.7993817,"ECCENTRICITY":8.614e-5,"INCLINATION":51.9023,"RA_OF_ASC_NODE":61.7926,"ARG_OF_PERICENTER":47.5445,"MEAN_ANOMALY":312.559,"EPHEMERIS_TYPE":0,"CLASSIFICATION_TYPE":"U","NORAD_CAT_ID":65771,"ELEMENT_SET_NO":999,"REV_AT_EPOCH":2425,"BSTAR":-0.00056106174,"MEAN_MOTION_DOT":-4.496e-5,"MEAN_MOTION_DDOT":0},{"OBJECT_NAME":"KUIPER-00152","OBJECT_ID":"2025-217L","EPOCH":"2026-03-05T15:28:37.346016","MEAN_MOTION":14.79949813,"ECCENTRICITY":6.212e-5,"INCLINATION":51.9005,"RA_OF_ASC_NODE":48.4794,"ARG_OF_PERICENTER":117.5675,"MEAN_ANOMALY":242.535,"EPHEMERIS_TYPE":0,"CLASSIFICATION_TYPE":"U","NORAD_CAT_ID":65772,"ELEMENT_SET_NO":999,"REV_AT_EPOCH":2445,"BSTAR":-0.00035282475,"MEAN_MOTION_DOT":-2.911e-5,"MEAN_MOTION_DDOT":0}]
